[{"OBJECT_NAME":"KNACKSAT-2","OBJECT_ID":"1998-067XZ","EPOCH":"2026-04-03T22:54:03.323232","MEAN_MOTION":15.54059237,"ECCENTRICITY":0.00105141,"INCLINATION":51.6305,"RA_OF_ASC_NODE":306.1177,"ARG_OF_PERICENTER":279.0913,"MEAN_ANOMALY":80.8888,"EPHEMERIS_TYPE":0,"CLASSIFICATION_TYPE":"U","NORAD_CAT_ID":67683,"ELEMENT_SET_NO":999,"REV_AT_EPOCH":871,"BSTAR":0.00099572606,"MEAN_MOTION_DOT":0.00065956,"MEAN_MOTION_DDOT":0}]
