KNACKSAT-2              
1 67683U 98067XZ  26093.95420513  .00065956  00000+0  99573-3 0  9995
2 67683  51.6305 306.1177 0010514 279.0913  80.8888 15.54059237  8716
